ONEWEB-0211             
1 48767U 21045A   26182.55870184  .00000083  00000+0  18429-3 0  9998
2 48767  87.9001 256.2159 0002400 115.0995 245.0385 13.16197439246334
ONEWEB-0223             
1 48768U 21045B   26182.64415789  .00000056  00000+0  11435-3 0  9995
2 48768  87.9004 256.3109 0002065 112.6684 247.4665 13.15548753246301
ONEWEB-0230             
1 48769U 21045C   26182.61563759 -.00000112  00000+0 -33038-3 0  9992
2 48769  87.8996 256.3291 0001934  95.1342 265.0009 13.15548230246569
ONEWEB-0237             
1 48770U 21045D   26182.60454173  .00000084  00000+0  19015-3 0  9997
2 48770  87.8996 256.3331 0002352 102.8064 257.3330 13.15547050246287
ONEWEB-0235             
1 48771U 21045E   26182.19890715  .00000254  00000+0  64067-3 0  9994
2 48771  87.9006 256.4008 0001912 111.2535 248.8800 13.15550077246225
ONEWEB-0242             
1 48772U 21045F   26182.49680021  .00000230  00000+0  57820-3 0  9998
2 48772  87.9005 256.3388 0001857 102.6167 257.5171 13.15548005246303
ONEWEB-0241             
1 48773U 21045G   26182.25594490  .00000094  00000+0  21452-3 0  9997
2 48773  87.8993 256.4035 0002195 110.5000 249.6366 13.15550294246186
ONEWEB-0243             
1 48774U 21045H   26182.59187134  .00001789  00000+0  47174-2 0  9998
2 48774  87.8989 256.3482 0001248 101.9556 258.1715 13.15549834246254
ONEWEB-0222             
1 48775U 21045J   26182.27099176  .00000280  00000+0  71072-3 0  9992
2 48775  87.9004 256.3814 0002063 106.3131 253.8226 13.15550108246252
ONEWEB-0244             
1 48776U 21045K   26182.44926073 -.00000128  00000+0 -37469-3 0  9992
2 48776  87.9012 256.3415 0001911 103.4860 256.6484 13.15548482246841
ONEWEB-0247             
1 48777U 21045L   26182.44609620  .00000010  00000+0 -68392-5 0  9999
2 48777  87.8995 256.3723 0001553 122.1059 238.0222 13.15548504246280
ONEWEB-0245             
1 48778U 21045M   26182.44133735  .00000112  00000+0  26430-3 0  9996
2 48778  87.9004 256.3537 0002123 104.0311 256.1056 13.15549209246256
ONEWEB-0229             
1 48779U 21045N   26182.43658074  .00000049  00000+0  96294-4 0  9999
2 48779  87.9009 256.3524 0001899 100.7348 259.3996 13.15548379246288
ONEWEB-0228             
1 48780U 21045P   26182.62211385  .00000077  00000+0  17087-3 0  9995
2 48780  87.9011 256.3089 0001994 102.7450 257.3904 13.15548443246224
ONEWEB-0232             
1 48781U 21045Q   26182.59662325  .00000141  00000+0  33964-3 0  9990
2 48781  87.9010 256.3148 0002102 100.5175 259.6193 13.15547561246542
ONEWEB-0231             
1 48782U 21045R   26182.27020285  .00000112  00000+0  26415-3 0  9990
2 48782  87.9004 256.3920 0001970 106.1984 253.9364 13.15548663246198
ONEWEB-0234             
1 48783U 21045S   26182.23203707 -.00000238  00000+0 -66577-3 0  9993
2 48783  87.9005 256.3816 0002858  98.3639 261.7815 13.15548335246328
ONEWEB-0238             
1 48784U 21045T   26182.23231917 -.00000045  00000+0 -15362-3 0  9990
2 48784  87.9014 256.3771 0002442  99.3582 260.7824 13.15548870246228
ONEWEB-0240             
1 48785U 21045U   26182.25357299  .00000083  00000+0  18512-3 0  9995
2 48785  87.9006 256.3827 0002155 107.6369 252.4997 13.15549016246254
ONEWEB-0246             
1 48786U 21045V   26182.62830589 -.00000197  00000+0 -55696-3 0  9997
2 48786  87.9005 256.3120 0001891 100.9199 259.2144 13.15548767246175
ONEWEB-0210             
1 48787U 21045W   26182.60295533  .00000096  00000+0  22025-3 0  9996
2 48787  87.9009 256.3142 0001275 116.5648 243.5613 13.15547510246219
ONEWEB-0214             
1 48788U 21045X   26182.23137432 -.00000048  00000+0 -16261-3 0  9993
2 48788  87.9007 256.3850 0001686  95.5106 264.6216 13.15549833246139
ONEWEB-0221             
1 48789U 21045Y   26182.61880674 -.00000152  00000+0 -43749-3 0  9996
2 48789  87.9006 256.3167 0001978 105.4984 254.6365 13.15548224246271
ONEWEB-0213             
1 48790U 21045Z   26182.60771633 -.00000091  00000+0 -27517-3 0  9998
2 48790  87.9004 256.3210 0001882 106.2501 253.8837 13.15548082246332
ONEWEB-0212             
1 48791U 21045AA  26182.43260073  .00000036  00000+0  61638-4 0  9991
2 48791  87.9006 256.3508 0002055  99.8871 260.2492 13.15548493246307
ONEWEB-0227             
1 48792U 21045AB  26182.43182804  .00000058  00000+0  12015-3 0  9995
2 48792  87.9000 256.3514 0002027 102.1174 258.0184 13.15548163246253
ONEWEB-0226             
1 48793U 21045AC  26182.27337171  .00000106  00000+0  24636-3 0  9993
2 48793  87.9002 256.3872 0001749 102.1878 257.9449 13.15546572246203
ONEWEB-0224             
1 48794U 21045AD  26182.61722518 -.00000092  00000+0 -27900-3 0  9998
2 48794  87.8997 256.3524 0002828 110.7006 249.4428 13.15547933246178
ONEWEB-0233             
1 48795U 21045AE  26182.62183527 -.00000233  00000+0 -65409-3 0  9994
2 48795  87.8997 256.3590 0002044 108.4881 251.6472 13.15548281246190
ONEWEB-0190             
1 48796U 21045AF  26182.22901233 -.00000055  00000+0 -18148-3 0  9993
2 48796  87.9003 256.3999 0001771 120.1562 239.9744 13.15547801246217
