OBJECT_NAME,OBJECT_ID,EPOCH,MEAN_MOTION,ECCENTRICITY,INCLINATION,RA_OF_ASC_NODE,ARG_OF_PERICENTER,MEAN_ANOMALY,EPHEMERIS_TYPE,CLASSIFICATION_TYPE,NORAD_CAT_ID,ELEMENT_SET_NO,REV_AT_EPOCH,BSTAR,MEAN_MOTION_DOT,MEAN_MOTION_DDOT
ONEWEB-0211,2021-045A,2026-07-01T13:24:31.838976,13.16197439,.00024003,87.9001,256.2159,115.0995,245.0385,0,U,48767,999,24633,.18429102E-3,.83E-6,0
ONEWEB-0223,2021-045B,2026-07-01T15:27:35.241696,13.15548753,.00020654,87.9004,256.3109,112.6684,247.4665,0,U,48768,999,24630,.11435081E-3,.56E-6,0
ONEWEB-0230,2021-045C,2026-07-01T14:46:31.087776,13.15548230,.00019343,87.8996,256.3291,95.1342,265.0009,0,U,48769,999,24656,-.33037559E-3,-.112E-5,0
ONEWEB-0237,2021-045D,2026-07-01T14:30:32.405472,13.15547050,.00023528,87.8996,256.3331,102.8064,257.3330,0,U,48770,999,24628,.19014931E-3,.84E-6,0
ONEWEB-0235,2021-045E,2026-07-01T04:46:25.577760,13.15550077,.0001912,87.9006,256.4008,111.2535,248.8800,0,U,48771,999,24622,.64067E-3,.254E-5,0
ONEWEB-0242,2021-045F,2026-07-01T11:55:23.538144,13.15548005,.00018575,87.9005,256.3388,102.6167,257.5171,0,U,48772,999,24630,.57819767E-3,.23E-5,0
ONEWEB-0241,2021-045G,2026-07-01T06:08:33.639360,13.15550294,.00021957,87.8993,256.4035,110.5000,249.6366,0,U,48773,999,24618,.21452155E-3,.94E-6,0
ONEWEB-0243,2021-045H,2026-07-01T14:12:17.683776,13.15549834,.00012481,87.8989,256.3482,101.9556,258.1715,0,U,48774,999,24625,.471742E-2,.1789E-4,0
ONEWEB-0222,2021-045J,2026-07-01T06:30:13.688064,13.15550108,.00020638,87.9004,256.3814,106.3131,253.8226,0,U,48775,999,24625,.71071696E-3,.28E-5,0
ONEWEB-0244,2021-045K,2026-07-01T10:46:56.127072,13.15548482,.00019117,87.9012,256.3415,103.4860,256.6484,0,U,48776,999,24684,-.37469032E-3,-.128E-5,0
ONEWEB-0247,2021-045L,2026-07-01T10:42:22.711680,13.15548504,.00015534,87.8995,256.3723,122.1059,238.0222,0,U,48777,999,24628,-.6839164E-5,.1E-6,0
ONEWEB-0245,2021-045M,2026-07-01T10:35:31.547040,13.15549209,.00021239,87.9004,256.3537,104.0311,256.1056,0,U,48778,999,24625,.26430414E-3,.112E-5,0
ONEWEB-0229,2021-045N,2026-07-01T10:28:40.575936,13.15548379,.00018999,87.9009,256.3524,100.7348,259.3996,0,U,48779,999,24628,.96293857E-4,.49E-6,0
ONEWEB-0228,2021-045P,2026-07-01T14:55:50.636640,13.15548443,.00019941,87.9011,256.3089,102.7450,257.3904,0,U,48780,999,24622,.17086982E-3,.77E-6,0
ONEWEB-0232,2021-045Q,2026-07-01T14:19:08.248800,13.15547561,.00021025,87.9010,256.3148,100.5175,259.6193,0,U,48781,999,24654,.3396415E-3,.141E-5,0
ONEWEB-0231,2021-045R,2026-07-01T06:29:05.526240,13.15548663,.00019703,87.9004,256.3920,106.1984,253.9364,0,U,48782,999,24619,.26414767E-3,.112E-5,0
ONEWEB-0234,2021-045S,2026-07-01T05:34:08.002848,13.15548335,.00028584,87.9005,256.3816,98.3639,261.7815,0,U,48783,999,24632,-.6657689E-3,-.238E-5,0
ONEWEB-0238,2021-045T,2026-07-01T05:34:32.376288,13.15548870,.00024422,87.9014,256.3771,99.3582,260.7824,0,U,48784,999,24622,-.15362163E-3,-.45E-6,0
ONEWEB-0240,2021-045U,2026-07-01T06:05:08.706336,13.15549016,.00021552,87.9006,256.3827,107.6369,252.4997,0,U,48785,999,24625,.18512072E-3,.83E-6,0
ONEWEB-0246,2021-045V,2026-07-01T15:04:45.628896,13.15548767,.00018917,87.9005,256.3120,100.9199,259.2144,0,U,48786,999,24617,-.55695635E-3,-.197E-5,0
ONEWEB-0210,2021-045W,2026-07-01T14:28:15.340512,13.15547510,.00012756,87.9009,256.3142,116.5648,243.5613,0,U,48787,999,24621,.2202474E-3,.96E-6,0
ONEWEB-0214,2021-045X,2026-07-01T05:33:10.741248,13.15549833,.0001686,87.9007,256.3850,95.5106,264.6216,0,U,48788,999,24613,-.16261053E-3,-.48E-6,0
ONEWEB-0221,2021-045Y,2026-07-01T14:51:04.902336,13.15548224,.00019784,87.9006,256.3167,105.4984,254.6365,0,U,48789,999,24627,-.43748588E-3,-.152E-5,0
ONEWEB-0213,2021-045Z,2026-07-01T14:35:06.690912,13.15548082,.00018824,87.9004,256.3210,106.2501,253.8837,0,U,48790,999,24633,-.27516811E-3,-.91E-6,0
ONEWEB-0212,2021-045AA,2026-07-01T10:22:56.703072,13.15548493,.00020556,87.9006,256.3508,99.8871,260.2492,0,U,48791,999,24630,.61638443E-4,.36E-6,0
ONEWEB-0227,2021-045AB,2026-07-01T10:21:49.942656,13.15548163,.00020275,87.9000,256.3514,102.1174,258.0184,0,U,48792,999,24625,.12015232E-3,.58E-6,0
ONEWEB-0226,2021-045AC,2026-07-01T06:33:39.315744,13.15546572,.00017497,87.9002,256.3872,102.1878,257.9449,0,U,48793,999,24620,.24635968E-3,.106E-5,0
ONEWEB-0224,2021-045AD,2026-07-01T14:48:48.255552,13.15547933,.00028287,87.8997,256.3524,110.7006,249.4428,0,U,48794,999,24617,-.27900024E-3,-.92E-6,0
ONEWEB-0233,2021-045AE,2026-07-01T14:55:26.567328,13.15548281,.00020449,87.8997,256.3590,108.4881,251.6472,0,U,48795,999,24619,-.65409178E-3,-.233E-5,0
ONEWEB-0190,2021-045AF,2026-07-01T05:29:46.665312,13.15547801,.00017712,87.9003,256.3999,120.1562,239.9744,0,U,48796,999,24621,-.18148215E-3,-.55E-6,0
